{"type": "FeatureCollection", "features": [ {"type": "Feature", "properties": {"norad_id": 34031, "name": "COSMOS 2251 DEB", "group": "cosmos-2251-debris", "lat": 73.11569163477432, "lon": -139.14677553169673, "alt_km": 697.9527526981046, "timestamp": "2025-12-25T07:41:10.116900+00:00", "meta": {"OBJECT_NAME": "COSMOS 2251 DEB", "OBJECT_ID": "1993-036HS", "EPOCH": "2025-12-24T18:39:37.725408", "MEAN_MOTION": 14.59821401, "ECCENTRICITY": 0.00228464, "INCLINATION": 74.0132, "RA_OF_ASC_NODE": 112.7151, "ARG_OF_PERICENTER": 232.5605, "MEAN_ANOMALY": 251.9781, "EPHEMERIS_TYPE": 0, "CLASSIFICATION_TYPE": "U", "NORAD_CAT_ID": 34031, "ELEMENT_SET_NO": 999, "REV_AT_EPOCH": 88741, "BSTAR": 0.0013260312, "MEAN_MOTION_DOT": 6.338e-05, "MEAN_MOTION_DDOT": 0}, "tle": {"line1": "1 34031U 93036HS  25358.77751997  .00006338  00000+0  13260-2 0  9990", "line2": "2 34031  74.0132 112.7151 0022846 232.5605 251.9781 14.59821401887419"}}, "geometry": {"type": "Point", "coordinates": [-139.14677553169673, 73.11569163477432]}}, {"type": "Feature", "properties": {"norad_id": 34035, "name": "COSMOS 2251 DEB", "group": "cosmos-2251-debris", "lat": -73.94556302405671, "lon": -131.4390859387279, "alt_km": 707.9122807822732, "timestamp": "2025-12-25T07:41:10.116911+00:00", "meta": {"OBJECT_NAME": "COSMOS 2251 DEB", "OBJECT_ID": "1993-036HW", "EPOCH": "2025-12-24T17:29:26.306016", "MEAN_MOTION": 14.52093812, "ECCENTRICITY": 0.00452746, "INCLINATION": 74.0664, "RA_OF_ASC_NODE": 326.5905, "ARG_OF_PERICENTER": 325.8459, "MEAN_ANOMALY": 91.9477, "EPHEMERIS_TYPE": 0, "CLASSIFICATION_TYPE": "U", "NORAD_CAT_ID": 34035, "ELEMENT_SET_NO": 999, "REV_AT_EPOCH": 88140, "BSTAR": 0.0018806144, "MEAN_MOTION_DOT": 7.695e-05, "MEAN_MOTION_DDOT": 0}, "tle": {"line1": "1 34035U 93036HW  25358.72877669  .00007695  00000+0  18806-2 0  9992", "line2": "2 34035  74.0664 326.5905 0045274 325.8459  91.9477 14.52093812881405"}}, "geometry": {"type": "Point", "coordinates": [-131.4390859387279, -73.94556302405671]}}, {"type": "Feature", "properties": {"norad_id": 34036, "name": "COSMOS 2251 DEB", "group": "cosmos-2251-debris", "lat": -25.201441370351912, "lon": 116.10617082432132, "alt_km": 591.4382293943336, "timestamp": "2025-12-25T07:41:10.116921+00:00", "meta": {"OBJECT_NAME": "COSMOS 2251 DEB", "OBJECT_ID": "1993-036HX", "EPOCH": "2025-12-24T12:32:35.625120", "MEAN_MOTION": 14.95894376, "ECCENTRICITY": 0.00097561, "INCLINATION": 74.0206, "RA_OF_ASC_NODE": 125.4677, "ARG_OF_PERICENTER": 153.3579, "MEAN_ANOMALY": 206.8109, "EPHEMERIS_TYPE": 0, "CLASSIFICATION_TYPE": "U", "NORAD_CAT_ID": 34036, "ELEMENT_SET_NO": 999, "REV_AT_EPOCH": 88746, "BSTAR": 0.0042989752, "MEAN_MOTION_DOT": 0.00048446, "MEAN_MOTION_DDOT": 0}, "tle": {"line1": "1 34036U 93036HX  25358.52263455  .00048446  00000+0  42990-2 0  9993", "line2": "2 34036  74.0206 125.4677 0009756 153.3579 206.8109 14.95894376887464"}}, "geometry": {"type": "Point", "coordinates": [116.10617082432132, -25.201441370351912]}}, {"type": "Feature", "properties": {"norad_id": 34037, "name": "COSMOS 2251 DEB", "group": "cosmos-2251-debris", "lat": 15.192114598532793, "lon": -157.03685982277116, "alt_km": 776.6781890022266, "timestamp": "2025-12-25T07:41:10.116931+00:00", "meta": {"OBJECT_NAME": "COSMOS 2251 DEB", "OBJECT_ID": "1993-036HY", "EPOCH": "2025-12-24T20:53:18.089664", "MEAN_MOTION": 14.34694713, "ECCENTRICITY": 0.00518148, "INCLINATION": 74.0509, "RA_OF_ASC_NODE": 28.24, "ARG_OF_PERICENTER": 74.4628, "MEAN_ANOMALY": 286.2236, "EPHEMERIS_TYPE": 0, "CLASSIFICATION_TYPE": "U", "NORAD_CAT_ID": 34037, "ELEMENT_SET_NO": 999, "REV_AT_EPOCH": 87891, "BSTAR": 0.00042668891, "MEAN_MOTION_DOT": 1.201e-05, "MEAN_MOTION_DDOT": 0}, "tle": {"line1": "1 34037U 93036HY  25358.87034826  .00001201  00000+0  42669-3 0  9992", "line2": "2 34037  74.0509  28.2400 0051814  74.4628 286.2236 14.34694713878914"}}, "geometry": {"type": "Point", "coordinates": [-157.03685982277116, 15.192114598532793]}}, {"type": "Feature", "properties": {"norad_id": 34040, "name": "COSMOS 2251 DEB", "group": "cosmos-2251-debris", "lat": -64.50116592659475, "lon": 7.966048188837974, "alt_km": 901.0103294727387, "timestamp": "2025-12-25T07:41:10.116941+00:00", "meta": {"OBJECT_NAME": "COSMOS 2251 DEB", "OBJECT_ID": "1993-036JB", "EPOCH": "2025-12-24T21:28:53.823360", "MEAN_MOTION": 13.68395291, "ECCENTRICITY": 0.0343443, "INCLINATION": 73.9555, "RA_OF_ASC_NODE": 45.7775, "ARG_OF_PERICENTER": 356.6901, "MEAN_ANOMALY": 3.194, "EPHEMERIS_TYPE": 0, "CLASSIFICATION_TYPE": "U", "NORAD_CAT_ID": 34040, "ELEMENT_SET_NO": 999, "REV_AT_EPOCH": 83766, "BSTAR": 0.00078238026, "MEAN_MOTION_DOT": 9.87e-06, "MEAN_MOTION_DDOT": 0}, "tle": {"line1": "1 34040U 93036JB  25358.89506740  .00000987  00000+0  78238-3 0  9998", "line2": "2 34040  73.9555  45.7775 0343443 356.6901   3.1940 13.68395291837667"}}, "geometry": {"type": "Point", "coordinates": [7.966048188837974, -64.50116592659475]}}, {"type": "Feature", "properties": {"norad_id": 34045, "name": "COSMOS 2251 DEB", "group": "cosmos-2251-debris", "lat": -0.6987440045923314, "lon": 108.01270977513111, "alt_km": 799.4152039611608, "timestamp": "2025-12-25T07:41:10.116952+00:00", "meta": {"OBJECT_NAME": "COSMOS 2251 DEB", "OBJECT_ID": "1993-036JG", "EPOCH": "2025-12-24T22:49:15.837600", "MEAN_MOTION": 14.34075572, "ECCENTRICITY": 0.00261679, "INCLINATION": 74.0396, "RA_OF_ASC_NODE": 288.4883, "ARG_OF_PERICENTER": 8.685, "MEAN_ANOMALY": 65.6753, "EPHEMERIS_TYPE": 0, "CLASSIFICATION_TYPE": "U", "NORAD_CAT_ID": 34045, "ELEMENT_SET_NO": 999, "REV_AT_EPOCH": 88208, "BSTAR": 0.00010380606, "MEAN_MOTION_DOT": 2.65e-06, "MEAN_MOTION_DDOT": 0}, "tle": {"line1": "1 34045U 93036JG  25358.95087775  .00000265  00000+0  10381-3 0  9996", "line2": "2 34045  74.0396 288.4883 0026167   8.6850  65.6753 14.34075572882083"}}, "geometry": {"type": "Point", "coordinates": [108.01270977513111, -0.6987440045923314]}}, {"type": "Feature", "properties": {"norad_id": 34046, "name": "COSMOS 2251 DEB", "group": "cosmos-2251-debris", "lat": 11.459072085408062, "lon": -9.69170513725888, "alt_km": 706.9969749350366, "timestamp": "2025-12-25T07:41:10.116962+00:00", "meta": {"OBJECT_NAME": "COSMOS 2251 DEB", "OBJECT_ID": "1993-036JH", "EPOCH": "2025-12-23T09:52:11.144640", "MEAN_MOTION": 14.46554908, "ECCENTRICITY": 0.00745071, "INCLINATION": 74.0395, "RA_OF_ASC_NODE": 350.5457, "ARG_OF_PERICENTER": 70.7911, "MEAN_ANOMALY": 84.5304, "EPHEMERIS_TYPE": 0, "CLASSIFICATION_TYPE": "U", "NORAD_CAT_ID": 34046, "ELEMENT_SET_NO": 999, "REV_AT_EPOCH": 87980, "BSTAR": 0.0012677782, "MEAN_MOTION_DOT": 4.705e-05, "MEAN_MOTION_DDOT": 0}, "tle": {"line1": "1 34046U 93036JH  25357.41124010  .00004705  00000+0  12678-2 0  9994", "line2": "2 34046  74.0395 350.5457 0074507  70.7911  84.5304 14.46554908879806"}}, "geometry": {"type": "Point", "coordinates": [-9.69170513725888, 11.459072085408062]}}, {"type": "Feature", "properties": {"norad_id": 34050, "name": "COSMOS 2251 DEB", "group": "cosmos-2251-debris", "lat": 43.74896946939158, "lon": 152.6249386390307, "alt_km": 884.2025140437463, "timestamp": "2025-12-25T07:41:10.116972+00:00", "meta": {"OBJECT_NAME": "COSMOS 2251 DEB", "OBJECT_ID": "1993-036JM", "EPOCH": "2025-12-24T18:11:16.265760", "MEAN_MOTION": 13.96208292, "ECCENTRICITY": 0.0214816, "INCLINATION": 74.0883, "RA_OF_ASC_NODE": 349.436, "ARG_OF_PERICENTER": 50.6849, "MEAN_ANOMALY": 134.9519, "EPHEMERIS_TYPE": 0, "CLASSIFICATION_TYPE": "U", "NORAD_CAT_ID": 34050, "ELEMENT_SET_NO": 999, "REV_AT_EPOCH": 85599, "BSTAR": 0.00075542186, "MEAN_MOTION_DOT": 1.239e-05, "MEAN_MOTION_DDOT": 0}, "tle": {"line1": "1 34050U 93036JM  25358.75782715  .00001239  00000+0  75542-3 0  9998", "line2": "2 34050  74.0883 349.4360 0214816  50.6849 134.9519 13.96208292855997"}}, "geometry": {"type": "Point", "coordinates": [152.6249386390307, 43.74896946939158]}}, {"type": "Feature", "properties": {"norad_id": 34053, "name": "COSMOS 2251 DEB", "group": "cosmos-2251-debris", "lat": 37.62690470980752, "lon": 28.98625185316305, "alt_km": 1275.7607208859517, "timestamp": "2025-12-25T07:41:10.116982+00:00", "meta": {"OBJECT_NAME": "COSMOS 2251 DEB", "OBJECT_ID": "1993-036JQ", "EPOCH": "2025-12-24T16:46:41.846016", "MEAN_MOTION": 13.49178719, "ECCENTRICITY": 0.04228509, "INCLINATION": 73.8428, "RA_OF_ASC_NODE": 222.8995, "ARG_OF_PERICENTER": 9.4858, "MEAN_ANOMALY": 351.3918, "EPHEMERIS_TYPE": 0, "CLASSIFICATION_TYPE": "U", "NORAD_CAT_ID": 34053, "ELEMENT_SET_NO": 999, "REV_AT_EPOCH": 82845, "BSTAR": 0.00055430998, "MEAN_MOTION_DOT": 5.83e-06, "MEAN_MOTION_DDOT": 0}, "tle": {"line1": "1 34053U 93036JQ  25358.69909544  .00000583  00000+0  55431-3 0  9991", "line2": "2 34053  73.8428 222.8995 0422850   9.4858 351.3918 13.49178719828458"}}, "geometry": {"type": "Point", "coordinates": [28.98625185316305, 37.62690470980752]}}, {"type": "Feature", "properties": {"norad_id": 34056, "name": "COSMOS 2251 DEB", "group": "cosmos-2251-debris", "lat": -56.40385359364278, "lon": 28.397170887223574, "alt_km": 912.7270887265913, "timestamp": "2025-12-25T07:41:10.116992+00:00", "meta": {"OBJECT_NAME": "COSMOS 2251 DEB", "OBJECT_ID": "1993-036JT", "EPOCH": "2025-12-24T14:04:37.409376", "MEAN_MOTION": 14.20595846, "ECCENTRICITY": 0.01237013, "INCLINATION": 74.0582, "RA_OF_ASC_NODE": 55.1934, "ARG_OF_PERICENTER": 99.915, "MEAN_ANOMALY": 49.818, "EPHEMERIS_TYPE": 0, "CLASSIFICATION_TYPE": "U", "NORAD_CAT_ID": 34056, "ELEMENT_SET_NO": 999, "REV_AT_EPOCH": 86579, "BSTAR": 0.00070748207, "MEAN_MOTION_DOT": 1.62e-05, "MEAN_MOTION_DDOT": 0}, "tle": {"line1": "1 34056U 93036JT  25358.58654409  .00001620  00000+0  70748-3 0  9990", "line2": "2 34056  74.0582  55.1934 0123701  99.9150  49.8180 14.20595846865799"}}, "geometry": {"type": "Point", "coordinates": [28.397170887223574, -56.40385359364278]}}]}